<?xml version="1.0" encoding="UTF-8"?>
<ndm xmlns:xsi="http://www.w3.org/2001/XMLSchema-instance" xsi:noNamespaceSchemaLocation="https://sanaregistry.org/r/ndmxml_unqualified/ndmxml-2.0.0-master-2.0.xsd">
<omm id="CCSDS_OMM_VERS" version="2.0">
<header><CREATION_DATE/><ORIGINATOR/></header><body><segment><metadata><OBJECT_NAME>ONEWEB-0431</OBJECT_NAME><OBJECT_ID>2022-012J</OBJECT_ID><CENTER_NAME>EARTH</CENTER_NAME><REF_FRAME>TEME</REF_FRAME><TIME_SYSTEM>UTC</TIME_SYSTEM><MEAN_ELEMENT_THEORY>SGP4</MEAN_ELEMENT_THEORY></metadata><data><meanElements><EPOCH>2024-01-23T22:09:58.065408</EPOCH><MEAN_MOTION>13.10371489</MEAN_MOTION><ECCENTRICITY>.0001994</ECCENTRICITY><INCLINATION>87.8897</INCLINATION><RA_OF_ASC_NODE>210.1300</RA_OF_ASC_NODE><ARG_OF_PERICENTER>76.0939</ARG_OF_PERICENTER><MEAN_ANOMALY>284.0410</MEAN_ANOMALY></meanElements><tleParameters><EPHEMERIS_TYPE>0</EPHEMERIS_TYPE><CLASSIFICATION_TYPE>U</CLASSIFICATION_TYPE><NORAD_CAT_ID>51630</NORAD_CAT_ID><ELEMENT_SET_NO>999</ELEMENT_SET_NO><REV_AT_EPOCH>9471</REV_AT_EPOCH><BSTAR>-.16488E-2</BSTAR><MEAN_MOTION_DOT>-.563E-5</MEAN_MOTION_DOT><MEAN_MOTION_DDOT>0</MEAN_MOTION_DDOT></tleParameters></data></segment></body></omm>
<omm id="CCSDS_OMM_VERS" version="2.0">
<header><CREATION_DATE/><ORIGINATOR/></header><body><segment><metadata><OBJECT_NAME>ONEWEB-0434</OBJECT_NAME><OBJECT_ID>2022-012K</OBJECT_ID><CENTER_NAME>EARTH</CENTER_NAME><REF_FRAME>TEME</REF_FRAME><TIME_SYSTEM>UTC</TIME_SYSTEM><MEAN_ELEMENT_THEORY>SGP4</MEAN_ELEMENT_THEORY></metadata><data><meanElements><EPOCH>2024-01-23T21:37:27.295104</EPOCH><MEAN_MOTION>13.10368071</MEAN_MOTION><ECCENTRICITY>.0001667</ECCENTRICITY><INCLINATION>87.8898</INCLINATION><RA_OF_ASC_NODE>210.1391</RA_OF_ASC_NODE><ARG_OF_PERICENTER>96.8212</ARG_OF_PERICENTER><MEAN_ANOMALY>263.3105</MEAN_ANOMALY></meanElements><tleParameters><EPHEMERIS_TYPE>0</EPHEMERIS_TYPE><CLASSIFICATION_TYPE>U</CLASSIFICATION_TYPE><NORAD_CAT_ID>51631</NORAD_CAT_ID><ELEMENT_SET_NO>999</ELEMENT_SET_NO><REV_AT_EPOCH>9469</REV_AT_EPOCH><BSTAR>.75824E-3</BSTAR><MEAN_MOTION_DOT>.277E-5</MEAN_MOTION_DOT><MEAN_MOTION_DDOT>0</MEAN_MOTION_DDOT></tleParameters></data></segment></body></omm>
<omm id="CCSDS_OMM_VERS" version="2.0">
<header><CREATION_DATE/><ORIGINATOR/></header><body><segment><metadata><OBJECT_NAME>ONEWEB-0435</OBJECT_NAME><OBJECT_ID>2022-012L</OBJECT_ID><CENTER_NAME>EARTH</CENTER_NAME><REF_FRAME>TEME</REF_FRAME><TIME_SYSTEM>UTC</TIME_SYSTEM><MEAN_ELEMENT_THEORY>SGP4</MEAN_ELEMENT_THEORY></metadata><data><meanElements><EPOCH>2024-01-24T12:28:46.712640</EPOCH><MEAN_MOTION>13.10370695</MEAN_MOTION><ECCENTRICITY>.0001895</ECCENTRICITY><INCLINATION>87.8899</INCLINATION><RA_OF_ASC_NODE>210.0069</RA_OF_ASC_NODE><ARG_OF_PERICENTER>93.1837</ARG_OF_PERICENTER><MEAN_ANOMALY>266.9507</MEAN_ANOMALY></meanElements><tleParameters><EPHEMERIS_TYPE>0</EPHEMERIS_TYPE><CLASSIFICATION_TYPE>U</CLASSIFICATION_TYPE><NORAD_CAT_ID>51632</NORAD_CAT_ID><ELEMENT_SET_NO>999</ELEMENT_SET_NO><REV_AT_EPOCH>9604</REV_AT_EPOCH><BSTAR>-.18414E-4</BSTAR><MEAN_MOTION_DOT>.6E-7</MEAN_MOTION_DOT><MEAN_MOTION_DDOT>0</MEAN_MOTION_DDOT></tleParameters></data></segment></body></omm>
<omm id="CCSDS_OMM_VERS" version="2.0">
<header><CREATION_DATE/><ORIGINATOR/></header><body><segment><metadata><OBJECT_NAME>ONEWEB-0436</OBJECT_NAME><OBJECT_ID>2022-012M</OBJECT_ID><CENTER_NAME>EARTH</CENTER_NAME><REF_FRAME>TEME</REF_FRAME><TIME_SYSTEM>UTC</TIME_SYSTEM><MEAN_ELEMENT_THEORY>SGP4</MEAN_ELEMENT_THEORY></metadata><data><meanElements><EPOCH>2024-01-23T23:20:46.528800</EPOCH><MEAN_MOTION>13.17648033</MEAN_MOTION><ECCENTRICITY>.0001731</ECCENTRICITY><INCLINATION>87.9220</INCLINATION><RA_OF_ASC_NODE>179.8981</RA_OF_ASC_NODE><ARG_OF_PERICENTER>101.4275</ARG_OF_PERICENTER><MEAN_ANOMALY>258.7051</MEAN_ANOMALY></meanElements><tleParameters><EPHEMERIS_TYPE>0</EPHEMERIS_TYPE><CLASSIFICATION_TYPE>U</CLASSIFICATION_TYPE><NORAD_CAT_ID>51633</NORAD_CAT_ID><ELEMENT_SET_NO>999</ELEMENT_SET_NO><REV_AT_EPOCH>9971</REV_AT_EPOCH><BSTAR>.26169E-3</BSTAR><MEAN_MOTION_DOT>.114E-5</MEAN_MOTION_DOT><MEAN_MOTION_DDOT>0</MEAN_MOTION_DDOT></tleParameters></data></segment></body></omm>
<omm id="CCSDS_OMM_VERS" version="2.0">
<header><CREATION_DATE/><ORIGINATOR/></header><body><segment><metadata><OBJECT_NAME>ONEWEB-0438</OBJECT_NAME><OBJECT_ID>2022-012N</OBJECT_ID><CENTER_NAME>EARTH</CENTER_NAME><REF_FRAME>TEME</REF_FRAME><TIME_SYSTEM>UTC</TIME_SYSTEM><MEAN_ELEMENT_THEORY>SGP4</MEAN_ELEMENT_THEORY></metadata><data><meanElements><EPOCH>2024-01-24T01:05:40.842240</EPOCH><MEAN_MOTION>13.10372463</MEAN_MOTION><ECCENTRICITY>.0001385</ECCENTRICITY><INCLINATION>87.8901</INCLINATION><RA_OF_ASC_NODE>210.1015</RA_OF_ASC_NODE><ARG_OF_PERICENTER>102.5349</ARG_OF_PERICENTER><MEAN_ANOMALY>257.5933</MEAN_ANOMALY></meanElements><tleParameters><EPHEMERIS_TYPE>0</EPHEMERIS_TYPE><CLASSIFICATION_TYPE>U</CLASSIFICATION_TYPE><NORAD_CAT_ID>51634</NORAD_CAT_ID><ELEMENT_SET_NO>999</ELEMENT_SET_NO><REV_AT_EPOCH>9602</REV_AT_EPOCH><BSTAR>.17424E-2</BSTAR><MEAN_MOTION_DOT>.621E-5</MEAN_MOTION_DOT><MEAN_MOTION_DDOT>0</MEAN_MOTION_DDOT></tleParameters></data></segment></body></omm>
<omm id="CCSDS_OMM_VERS" version="2.0">
<header><CREATION_DATE/><ORIGINATOR/></header><body><segment><metadata><OBJECT_NAME>ONEWEB-0439</OBJECT_NAME><OBJECT_ID>2022-012P</OBJECT_ID><CENTER_NAME>EARTH</CENTER_NAME><REF_FRAME>TEME</REF_FRAME><TIME_SYSTEM>UTC</TIME_SYSTEM><MEAN_ELEMENT_THEORY>SGP4</MEAN_ELEMENT_THEORY></metadata><data><meanElements><EPOCH>2024-01-24T12:10:04.420704</EPOCH><MEAN_MOTION>13.10370873</MEAN_MOTION><ECCENTRICITY>.0001513</ECCENTRICITY><INCLINATION>87.8902</INCLINATION><RA_OF_ASC_NODE>209.9937</RA_OF_ASC_NODE><ARG_OF_PERICENTER>90.8440</ARG_OF_PERICENTER><MEAN_ANOMALY>269.2860</MEAN_ANOMALY></meanElements><tleParameters><EPHEMERIS_TYPE>0</EPHEMERIS_TYPE><CLASSIFICATION_TYPE>U</CLASSIFICATION_TYPE><NORAD_CAT_ID>51635</NORAD_CAT_ID><ELEMENT_SET_NO>999</ELEMENT_SET_NO><REV_AT_EPOCH>9605</REV_AT_EPOCH><BSTAR>.17064E-2</BSTAR><MEAN_MOTION_DOT>.608E-5</MEAN_MOTION_DOT><MEAN_MOTION_DDOT>0</MEAN_MOTION_DDOT></tleParameters></data></segment></body></omm>
<omm id="CCSDS_OMM_VERS" version="2.0">
<header><CREATION_DATE/><ORIGINATOR/></header><body><segment><metadata><OBJECT_NAME>ONEWEB-0442</OBJECT_NAME><OBJECT_ID>2022-012Q</OBJECT_ID><CENTER_NAME>EARTH</CENTER_NAME><REF_FRAME>TEME</REF_FRAME><TIME_SYSTEM>UTC</TIME_SYSTEM><MEAN_ELEMENT_THEORY>SGP4</MEAN_ELEMENT_THEORY></metadata><data><meanElements><EPOCH>2024-01-23T21:20:03.022368</EPOCH><MEAN_MOTION>13.17650562</MEAN_MOTION><ECCENTRICITY>.0000673</ECCENTRICITY><INCLINATION>87.9226</INCLINATION><RA_OF_ASC_NODE>179.9449</RA_OF_ASC_NODE><ARG_OF_PERICENTER>83.6932</ARG_OF_PERICENTER><MEAN_ANOMALY>276.4276</MEAN_ANOMALY></meanElements><tleParameters><EPHEMERIS_TYPE>0</EPHEMERIS_TYPE><CLASSIFICATION_TYPE>U</CLASSIFICATION_TYPE><NORAD_CAT_ID>51636</NORAD_CAT_ID><ELEMENT_SET_NO>999</ELEMENT_SET_NO><REV_AT_EPOCH>9840</REV_AT_EPOCH><BSTAR>.40533E-4</BSTAR><MEAN_MOTION_DOT>.29E-6</MEAN_MOTION_DOT><MEAN_MOTION_DDOT>0</MEAN_MOTION_DDOT></tleParameters></data></segment></body></omm>
<omm id="CCSDS_OMM_VERS" version="2.0">
<header><CREATION_DATE/><ORIGINATOR/></header><body><segment><metadata><OBJECT_NAME>ONEWEB-0443</OBJECT_NAME><OBJECT_ID>2022-012R</OBJECT_ID><CENTER_NAME>EARTH</CENTER_NAME><REF_FRAME>TEME</REF_FRAME><TIME_SYSTEM>UTC</TIME_SYSTEM><MEAN_ELEMENT_THEORY>SGP4</MEAN_ELEMENT_THEORY></metadata><data><meanElements><EPOCH>2024-01-23T21:47:22.606656</EPOCH><MEAN_MOTION>13.17648032</MEAN_MOTION><ECCENTRICITY>.0001917</ECCENTRICITY><INCLINATION>87.9226</INCLINATION><RA_OF_ASC_NODE>179.9462</RA_OF_ASC_NODE><ARG_OF_PERICENTER>111.9345</ARG_OF_PERICENTER><MEAN_ANOMALY>248.1991</MEAN_ANOMALY></meanElements><tleParameters><EPHEMERIS_TYPE>0</EPHEMERIS_TYPE><CLASSIFICATION_TYPE>U</CLASSIFICATION_TYPE><NORAD_CAT_ID>51637</NORAD_CAT_ID><ELEMENT_SET_NO>999</ELEMENT_SET_NO><REV_AT_EPOCH>9845</REV_AT_EPOCH><BSTAR>-.32009E-5</BSTAR><MEAN_MOTION_DOT>.12E-6</MEAN_MOTION_DOT><MEAN_MOTION_DDOT>0</MEAN_MOTION_DDOT></tleParameters></data></segment></body></omm>

</ndm>
