51630,ONEWEB-0431,2022,109.89,148.0,+,87.89,Active,1,LEO,French Guiana,UK,Commercial,Communications,Soyuz,1 51630U 22012J   24023.92358872 -.00000563  00000+0 -16488-2 0  9991,2 51630  87.8897 210.1300 0001994  76.0939 284.0410 13.10371489 94715,13.10371489,0.0001994,LEO
51631,ONEWEB-0434,2022,109.9,148.0,+,87.89,Active,1,LEO,French Guiana,UK,Commercial,Communications,Soyuz,1 51631U 22012K   24023.90101036  .00000277  00000+0  75824-3 0  9998,2 51631  87.8898 210.1391 0001667  96.8212 263.3105 13.10368071 94699,13.10368071,0.0001667,LEO
51632,ONEWEB-0435,2022,109.89,148.0,+,87.89,Active,1,LEO,French Guiana,UK,Commercial,Communications,Soyuz,1 51632U 22012L   24024.51998510  .00000006  00000+0 -18414-4 0  9992,2 51632  87.8899 210.0069 0001895  93.1837 266.9507 13.10370695 96049,13.10370695,0.0001895,LEO
51633,ONEWEB-0436,2022,109.29,148.0,+,87.92,Active,1,LEO,French Guiana,UK,Commercial,Communications,Soyuz,1 51633U 22012M   24023.97276075  .00000114  00000+0  26169-3 0  9991,2 51633  87.9220 179.8981 0001731 101.4275 258.7051 13.17648033 99713,13.17648033,0.0001731,LEO
51634,ONEWEB-0438,2022,109.89,148.0,+,87.89,Active,1,LEO,French Guiana,UK,Commercial,Communications,Soyuz,1 51634U 22012N   24024.04561160  .00000621  00000+0  17424-2 0  9999,2 51634  87.8901 210.1015 0001385 102.5349 257.5933 13.10372463 96026,13.10372463,0.0001385,LEO
51635,ONEWEB-0439,2022,109.89,148.0,+,87.89,Active,1,LEO,French Guiana,UK,Commercial,Communications,Soyuz,1 51635U 22012P   24024.50699561  .00000608  00000+0  17064-2 0  9993,2 51635  87.8902 209.9937 0001513  90.8440 269.2860 13.10370873 96056,13.10370873,0.0001513,LEO
51636,ONEWEB-0442,2022,109.29,148.0,+,87.92,Active,1,LEO,French Guiana,UK,Commercial,Communications,Soyuz,1 51636U 22012Q   24023.88892387  .00000029  00000+0  40533-4 0  9991,2 51636  87.9226 179.9449 0000673  83.6932 276.4276 13.17650562 98408,13.17650562,6.73e-05,LEO
51637,ONEWEB-0443,2022,109.29,148.0,+,87.92,Active,1,LEO,French Guiana,UK,Commercial,Communications,Soyuz,1 51637U 22012R   24023.90790054  .00000012  00000+0 -32009-5 0  9996,2 51637  87.9226 179.9462 0001917 111.9345 248.1991 13.17648032 98453,13.17648032,0.0001917,LEO
